HULIANWANG DIGUI-113    
1 66923U 25285J   25361.21522566 -.00000156  00000+0 -32767-5 0  9997
2 66923  50.0104  58.2357 0003619 348.6644  11.4178 14.03204548  2940
CZ-8A R/B               
1 66924U 25285K   25361.19149694  .00000072  00000+0  83991-4 0  9991
2 66924  50.0086  54.6380 0119228 157.6833 202.9332 14.30507650  2992
STARLINK-35945          
1 66925U 25286A   25361.16668980 -.02052368  00000+0 -34497-1 0  9997
2 66925  53.1594 338.7221 0001177  78.8781 336.8623 15.54372597  4304
STARLINK-35942          
1 66926U 25286B   25361.16668980 -.01941700  00000+0 -34924-1 0  9999
2 66926  53.1597 338.7767 0001032 103.1707 285.3026 15.52346270  4305
STARLINK-35943          
1 66927U 25286C   25361.16668980 -.01943066  00000+0 -34948-1 0  9993
2 66927  53.1597 338.7729 0001117 104.8130 285.5757 15.52348893  4302
STARLINK-35944          
1 66928U 25286D   25361.16668980 -.01927902  00000+0 -34654-1 0  9999
2 66928  53.1596 338.7804 0001175  98.1716 288.3820 15.52340361  4309
STARLINK-36169          
1 66929U 25286E   25361.16668980 -.01939692  00000+0 -34882-1 0  9992
2 66929  53.1598 338.7688 0001178 109.3849 282.9206 15.52346834  4306
STARLINK-36206          
1 66930U 25286F   25361.16668980 -.01939489  00000+0 -34883-1 0  9999
2 66930  53.1598 338.7644 0001032 111.8426 282.3804 15.52343994  4300
STARLINK-36130          
1 66931U 25286G   25361.16668980 -.01885993  00000+0 -34512-1 0  9999
2 66931  53.1594 338.7609 0001070 109.4056 286.7481 15.52325869  4302
STARLINK-36177          
1 66932U 25286H   25361.16668980 -.01929439  00000+0 -34683-1 0  9993
2 66932  53.1592 338.7559 0001109 112.7954 285.2584 15.52342235  4306
STARLINK-36157          
1 66933U 25286J   25361.16668980 -.01930691  00000+0 -34709-1 0  9995
2 66933  53.1589 338.7528 0001167 103.2664 296.7054 15.52341538  4300
STARLINK-36153          
1 66934U 25286K   25361.16668980 -.01932546  00000+0 -34747-1 0  9999
2 66934  53.1594 338.7486 0001164  93.3045 308.5875 15.52340413  4303
STARLINK-36127          
1 66935U 25286L   25361.16668980 -.01933305  00000+0 -34762-1 0  9991
2 66935  53.1596 338.7439 0001201 112.0984 291.7112 15.52340648  4304
STARLINK-36160          
1 66936U 25286M   25361.16668980 -.01935739  00000+0 -34810-1 0  9999
2 66936  53.1594 338.7408 0001104 111.5681 294.1560 15.52341804  4308
STARLINK-36165          
1 66937U 25286N   25361.16668980 -.01890432  00000+0 -34591-1 0  9996
2 66937  53.1594 338.7366 0001010 111.3279 296.3143 15.52336690  4307
STARLINK-36155          
1 66938U 25286P   25361.16668980 -.01927893  00000+0 -34659-1 0  9994
2 66938  53.1596 338.7319 0001010 109.0984 300.4622 15.52337718  4306
STARLINK-36154          
1 66939U 25286Q   25361.16668980 -.01936424  00000+0 -34823-1 0  9998
2 66939  53.1594 338.7244 0001083 110.5351 302.8561 15.52342320  4300
STARLINK-36121          
1 66940U 25286R   25361.16668980 -.01954566  00000+0 -35175-1 0  9998
2 66940  53.1593 338.7205 0000921  96.7552 318.5505 15.52353285  4300
STARLINK-36088          
1 66941U 25286S   25361.16668980 -.02059484  00000+0 -34624-1 0  9993
2 66941  53.1596 338.6656 0001327  80.3388   2.2358 15.54376635  4309
STARLINK-36100          
1 66942U 25286T   25361.16668980 -.01957772  00000+0 -35237-1 0  9991
2 66942  53.1589 338.7163 0000856  98.2053 319.0176 15.52355623  4241
STARLINK-36109          
1 66943U 25286U   25361.16668980 -.01948768  00000+0 -35063-1 0  9994
2 66943  53.1591 338.7117 0000927  98.8361 320.3046 15.52349882  4242
STARLINK-36112          
1 66944U 25286V   25361.16668980 -.01885966  00000+0 -34500-1 0  9990
2 66944  53.1590 338.7078 0000963 105.0704 315.9883 15.52336007  4301
STARLINK-36110          
1 66945U 25286W   25361.16668980 -.01937970  00000+0 -34855-1 0  9997
2 66945  53.1592 338.7033 0000922 111.1444 311.8315 15.52342832  4318
STARLINK-36115          
1 66946U 25286X   25361.16668980 -.01880662  00000+0 -34394-1 0  9991
2 66946  53.1594 338.7000 0001064 113.9867 310.9089 15.52331965  4304
STARLINK-36089          
1 66947U 25286Y   25361.16668980 -.01883101  00000+0 -34443-1 0  9998
2 66947  53.1595 338.6918 0001089 113.7687 314.9589 15.52333310  4303
STARLINK-36116          
1 66948U 25286Z   25361.16668980 -.01885808  00000+0 -34496-1 0  9993
2 66948  53.1595 338.6958 0001030 115.6936 311.1183 15.52335674  4306
STARLINK-36096          
1 66949U 25286AA  25361.16668980 -.01944203  00000+0 -34975-1 0  9991
2 66949  53.1596 338.6877 0001062 104.4551 326.1887 15.52345948  4315
STARLINK-36111          
1 66950U 25286AB  25361.16668980 -.01932764  00000+0 -34751-1 0  9994
2 66950  53.1594 338.6802 0000941  98.6020 335.8748 15.52342253  4301
STARLINK-35999          
1 66951U 25286AC  25361.16668980 -.01930824  00000+0 -34716-1 0  9991
2 66951  53.1594 338.6762 0000931 110.7278 325.6675 15.52339586  4319
STARLINK-36122          
1 66952U 25286AD  25361.16668980 -.01881089  00000+0 -34405-1 0  9995
2 66952  53.1597 338.6841 0000907 107.2433 325.3196 15.52331732  4307
HULIANWANG DIGUI-114    
1 66953U 25287A   25354.38141962  .00000019  00000+0  30336-5 0  9995
2 66953  86.4960 343.3747 0009673 185.0352 175.0710 13.66161866  1572
HULIANWANG DIGUI-115    
1 66954U 25287B   25358.92426492  .00000023  00000+0  84421-5 0  9993
2 66954  86.5036 341.7372 0003385 109.9724 250.1798 13.63539042  2198
HULIANWANG DIGUI-116    
1 66955U 25287C   25358.99508699  .00000148  00000+0  16529-3 0  9991
2 66955  86.4919 341.6856 0001633  94.3011 265.8333 13.64194122  2201
HULIANWANG DIGUI-117    
1 66956U 25287D   25358.91908891  .00000024  00000+0  90260-5 0  9991
2 66956  86.4976 341.7257 0001044 103.5815 256.5458 13.64670553  2192
HULIANWANG DIGUI-118    
1 66957U 25287E   25355.03488252  .00000128  00000+0  13223-3 0  9993
2 66957  86.4946 343.1304 0005472 170.9065 189.2194 13.67510110  1668
CZ-6A R/B               
1 66958U 25287F   25360.97767918  .00000126  00000+0  75983-4 0  9992
2 66958  86.5066 340.6879 0107055  59.3506 301.8169 13.94921923  2520
STARLINK-35887          
1 66959U 25288A   25361.16668980 -.02049559  00000+0 -30742-1 0  9993
2 66959  42.9997  79.4959 0001405 267.2651   9.3846 15.57189510  4140
STARLINK-35879          
1 66960U 25288B   25361.16668980 -.02041494  00000+0 -30615-1 0  9994
2 66960  42.9998  79.4906 0001241 263.7526  14.8167 15.57183297  4148
STARLINK-35761          
1 66961U 25288C   25361.16668980 -.02046221  00000+0 -30691-1 0  9992
2 66961  42.9996  79.4861 0001282 265.9734  14.5129 15.57185827  4143
STARLINK-35874          
1 66962U 25288D   25361.16668980 -.02033404  00000+0 -30481-1 0  9999
2 66962  43.0000  79.4813 0001461 266.8362  15.5660 15.57179592  4148
STARLINK-36133          
1 66963U 25288E   25361.16668980 -.02047399  00000+0 -30707-1 0  9999
2 66963  42.9998  79.4764 0001446 262.8950  21.4252 15.57187609  4141
STARLINK-36104          
1 66964U 25288F   25361.16668980 -.02042004  00000+0 -30620-1 0  9992
2 66964  43.0001  79.4712 0001445 265.4057  20.8315 15.57184422  4141
STARLINK-36067          
1 66965U 25288G   25361.16668980 -.02047728  00000+0 -30716-1 0  9997
2 66965  42.9999  79.4672 0001298 267.1295  21.0250 15.57186318  4147
STARLINK-36139          
1 66966U 25288H   25361.16668980 -.02047036  00000+0 -30702-1 0  9995
2 66966  42.9999  79.4620 0001524 268.2701  21.8015 15.57186152  4140
STARLINK-36136          
1 66967U 25288J   25361.16668980 -.02046321  00000+0 -30690-1 0  9998
2 66967  43.0001  79.4573 0001369 267.4071  24.5795 15.57187122  4145
STARLINK-36152          
1 66968U 25288K   25361.16668980 -.02039439  00000+0 -30580-1 0  9999
2 66968  43.0000  79.4521 0001431 269.1357  24.7705 15.57181702  4145
STARLINK-36149          
1 66969U 25288L   25361.16668980 -.02035529  00000+0 -30515-1 0  9994
2 66969  42.9998  79.4282 0001404 264.7665  38.7240 15.57181954  4145
STARLINK-35703          
1 66970U 25288M   25361.16668980 -.02037638  00000+0 -30552-1 0  9990
2 66970  43.0003  79.4085 0001374 268.6260  42.5356 15.57180365  4143
STARLINK-35678          
1 66971U 25288N   25361.16668980 -.02031848  00000+0 -30459-1 0  9994
2 66971  42.9999  79.4480 0001347 268.3199  27.5054 15.57177606  4145
STARLINK-34846          
1 66972U 25288P   25361.16668980 -.02043099  00000+0 -30637-1 0  9994
2 66972  42.9999  79.4436 0001596 266.1324  31.6066 15.57184478  4143
STARLINK-35778          
1 66973U 25288Q   25361.16668980 -.02036707  00000+0 -30537-1 0  9992
2 66973  42.9998  79.4387 0001425 269.9856  29.6726 15.57179977  4148
STARLINK-35780          
1 66974U 25288R   25361.16668980 -.02037411  00000+0 -30548-1 0  9998
2 66974  42.9999  79.4339 0001365 270.3642  31.2099 15.57181248  4145
STARLINK-35777          
1 66975U 25288S   25361.16668980 -.02039234  00000+0 -30575-1 0  9994
2 66975  43.0000  79.4233 0001477 264.5220  40.8863 15.57182990  4145
STARLINK-35772          
1 66976U 25288T   25361.16668980  .00075630  00000+0  18040-2 0  9995
2 66976  43.0003  80.8994 0001553 253.2839 174.4643 15.40629907  4141
STARLINK-35770          
1 66977U 25288U   25361.16668980 -.02032553  00000+0 -30468-1 0  9994
2 66977  42.9999  79.4197 0001444 267.2120  40.1136 15.57178929  4147
STARLINK-35787          
1 66978U 25288V   25361.16668980 -.02044290  00000+0 -30659-1 0  9998
2 66978  43.0001  79.4047 0001436 273.0866  39.9896 15.57184119  4148
STARLINK-36107          
1 66979U 25288W   25361.16668980 -.02041023  00000+0 -30606-1 0  9992
2 66979  43.0000  79.4000 0001412 264.7318  50.2631 15.57183110  4143
STARLINK-36086          
1 66980U 25288X   25361.16668980 -.02039223  00000+0 -30576-1 0  9999
2 66980  43.0000  79.3947 0001458 270.7859  46.1256 15.57182399  4146
STARLINK-36142          
1 66981U 25288Y   25361.16668980 -.02030815  00000+0 -30441-1 0  9999
2 66981  42.9999  79.3898 0001332 264.8198  54.0093 15.57177867  4149
